[{"OBJECT_NAME":"SL-14 R/B","OBJECT_ID":"1986-006B","EPOCH":"2026-04-15T06:22:12.308736","MEAN_MOTION":14.86878936,"ECCENTRICITY":0.00772598,"INCLINATION":82.528,"RA_OF_ASC_NODE":225.3115,"ARG_OF_PERICENTER":150.505,"MEAN_ANOMALY":210.0561,"EPHEMERIS_TYPE":0,"CLASSIFICATION_TYPE":"U","NORAD_CAT_ID":16496,"ELEMENT_SET_NO":999,"REV_AT_EPOCH":15464,"BSTAR":4.6999223e-5,"MEAN_MOTION_DOT":4.71e-6,"MEAN_MOTION_DDOT":0},{"OBJECT_NAME":"COSMOS 1743","OBJECT_ID":"1986-034A","EPOCH":"2026-04-15T06:21:57.250944","MEAN_MOTION":15.61829837,"ECCENTRICITY":0.00069639,"INCLINATION":82.5312,"RA_OF_ASC_NODE":35.3509,"ARG_OF_PERICENTER":127.5074,"MEAN_ANOMALY":232.6818,"EPHEMERIS_TYPE":0,"CLASSIFICATION_TYPE":"U","NORAD_CAT_ID":16719,"ELEMENT_SET_NO":999,"REV_AT_EPOCH":18595,"BSTAR":0.00028523418,"MEAN_MOTION_DOT":0.00024804,"MEAN_MOTION_DDOT":0},{"OBJECT_NAME":"SL-14 R/B","OBJECT_ID":"1986-046B","EPOCH":"2026-04-15T05:54:11.516832","MEAN_MOTION":14.85627108,"ECCENTRICITY":0.00246425,"INCLINATION":82.4834,"RA_OF_ASC_NODE":45.638,"ARG_OF_PERICENTER":106.0795,"MEAN_ANOMALY":254.3137,"EPHEMERIS_TYPE":0,"CLASSIFICATION_TYPE":"U","NORAD_CAT_ID":16792,"ELEMENT_SET_NO":999,"REV_AT_EPOCH":13183,"BSTAR":2.7541298e-5,"MEAN_MOTION_DOT":2.65e-6,"MEAN_MOTION_DDOT":0},{"OBJECT_NAME":"SL-14 R/B","OBJECT_ID":"1986-055B","EPOCH":"2026-04-15T05:32:14.845632","MEAN_MOTION":14.85675747,"ECCENTRICITY":0.00181023,"INCLINATION":82.5173,"RA_OF_ASC_NODE":92.3157,"ARG_OF_PERICENTER":206.9534,"MEAN_ANOMALY":163.5372,"EPHEMERIS_TYPE":0,"CLASSIFICATION_TYPE":"U","NORAD_CAT_ID":16882,"ELEMENT_SET_NO":999,"REV_AT_EPOCH":12479,"BSTAR":2.6254678e-5,"MEAN_MOTION_DOT":2.52e-6,"MEAN_MOTION_DDOT":0},{"OBJECT_NAME":"AJISAI (EGS)","OBJECT_ID":"1986-061A","EPOCH":"2026-04-15T06:18:43.257024","MEAN_MOTION":12.4451578,"ECCENTRICITY":0.00113964,"INCLINATION":50.0115,"RA_OF_ASC_NODE":340.8874,"ARG_OF_PERICENTER":21.0121,"MEAN_ANOMALY":83.5128,"EPHEMERIS_TYPE":0,"CLASSIFICATION_TYPE":"U","NORAD_CAT_ID":16908,"ELEMENT_SET_NO":999,"REV_AT_EPOCH":47255,"BSTAR":9.7502975e-5,"MEAN_MOTION_DOT":-8.4e-7,"MEAN_MOTION_DDOT":0},{"OBJECT_NAME":"SL-14 R/B","OBJECT_ID":"1987-024B","EPOCH":"2026-04-15T06:23:08.153376","MEAN_MOTION":14.86168031,"ECCENTRICITY":0.00193124,"INCLINATION":82.5282,"RA_OF_ASC_NODE":58.3795,"ARG_OF_PERICENTER":135.9883,"MEAN_ANOMALY":224.2875,"EPHEMERIS_TYPE":0,"CLASSIFICATION_TYPE":"U","NORAD_CAT_ID":17567,"ELEMENT_SET_NO":999,"REV_AT_EPOCH":9356,"BSTAR":2.627642e-5,"MEAN_MOTION_DOT":2.56e-6,"MEAN_MOTION_DDOT":0},{"OBJECT_NAME":"COSMOS 1833","OBJECT_ID":"1987-027A","EPOCH":"2026-04-15T02:30:51.331392","MEAN_MOTION":14.13038545,"ECCENTRICITY":0.00225882,"INCLINATION":70.9162,"RA_OF_ASC_NODE":249.4732,"ARG_OF_PERICENTER":158.9688,"MEAN_ANOMALY":201.2367,"EPHEMERIS_TYPE":0,"CLASSIFICATION_TYPE":"U","NORAD_CAT_ID":17589,"ELEMENT_SET_NO":999,"REV_AT_EPOCH":1546,"BSTAR":-0.00014246287,"MEAN_MOTION_DOT":-3.15e-6,"MEAN_MOTION_DDOT":0},{"OBJECT_NAME":"SL-16 R/B","OBJECT_ID":"1987-027B","EPOCH":"2026-04-15T06:07:11.878176","MEAN_MOTION":14.17169114,"ECCENTRICITY":0.00030742,"INCLINATION":71.0034,"RA_OF_ASC_NODE":199.441,"ARG_OF_PERICENTER":48.1986,"MEAN_ANOMALY":311.94,"EPHEMERIS_TYPE":0,"CLASSIFICATION_TYPE":"U","NORAD_CAT_ID":17590,"ELEMENT_SET_NO":999,"REV_AT_EPOCH":2052,"BSTAR":-9.3883853e-5,"MEAN_MOTION_DOT":-2.37e-6,"MEAN_MOTION_DDOT":0},{"OBJECT_NAME":"SL-14 R/B","OBJECT_ID":"1987-038B","EPOCH":"2026-04-15T03:28:51.794688","MEAN_MOTION":14.85403543,"ECCENTRICITY":0.00203017,"INCLINATION":82.4988,"RA_OF_ASC_NODE":262.4534,"ARG_OF_PERICENTER":47.3554,"MEAN_ANOMALY":312.9369,"EPHEMERIS_TYPE":0,"CLASSIFICATION_TYPE":"U","NORAD_CAT_ID":17912,"ELEMENT_SET_NO":999,"REV_AT_EPOCH":8464,"BSTAR":2.4207558e-5,"MEAN_MOTION_DOT":2.34e-6,"MEAN_MOTION_DDOT":0},{"OBJECT_NAME":"COSMOS 1844","OBJECT_ID":"1987-041A","EPOCH":"2026-04-15T00:43:32.807712","MEAN_MOTION":14.14564834,"ECCENTRICITY":0.00323534,"INCLINATION":70.9002,"RA_OF_ASC_NODE":317.5264,"ARG_OF_PERICENTER":324.3671,"MEAN_ANOMALY":35.529,"EPHEMERIS_TYPE":0,"CLASSIFICATION_TYPE":"U","NORAD_CAT_ID":17973,"ELEMENT_SET_NO":999,"REV_AT_EPOCH":872,"BSTAR":-2.9942577e-5,"MEAN_MOTION_DOT":-1.06e-6,"MEAN_MOTION_DDOT":0},{"OBJECT_NAME":"SL-14 R/B","OBJECT_ID":"1987-055B","EPOCH":"2026-04-15T01:09:19.824768","MEAN_MOTION":14.85662826,"ECCENTRICITY":0.00191763,"INCLINATION":82.4977,"RA_OF_ASC_NODE":314.7627,"ARG_OF_PERICENTER":252.2166,"MEAN_ANOMALY":107.6958,"EPHEMERIS_TYPE":0,"CLASSIFICATION_TYPE":"U","NORAD_CAT_ID":18153,"ELEMENT_SET_NO":999,"REV_AT_EPOCH":7533,"BSTAR":2.5660771e-5,"MEAN_MOTION_DOT":2.47e-6,"MEAN_MOTION_DDOT":0},{"OBJECT_NAME":"COSMOS 1867","OBJECT_ID":"1987-060A","EPOCH":"2026-04-15T06:11:51.288000","MEAN_MOTION":14.31508644,"ECCENTRICITY":0.00151797,"INCLINATION":65.0109,"RA_OF_ASC_NODE":204.2924,"ARG_OF_PERICENTER":280.5888,"MEAN_ANOMALY":79.3486,"EPHEMERIS_TYPE":0,"CLASSIFICATION_TYPE":"U","NORAD_CAT_ID":18187,"ELEMENT_SET_NO":999,"REV_AT_EPOCH":2517,"BSTAR":1.3067544e-5,"MEAN_MOTION_DOT":-6.5e-7,"MEAN_MOTION_DDOT":0},{"OBJECT_NAME":"SL-14 R/B","OBJECT_ID":"1988-001B","EPOCH":"2026-04-15T04:20:15.182592","MEAN_MOTION":14.85564742,"ECCENTRICITY":0.00195155,"INCLINATION":82.514,"RA_OF_ASC_NODE":161.0487,"ARG_OF_PERICENTER":115.8348,"MEAN_ANOMALY":244.4884,"EPHEMERIS_TYPE":0,"CLASSIFICATION_TYPE":"U","NORAD_CAT_ID":18749,"ELEMENT_SET_NO":999,"REV_AT_EPOCH":4744,"BSTAR":2.1984087e-5,"MEAN_MOTION_DOT":2.15e-6,"MEAN_MOTION_DDOT":0},{"OBJECT_NAME":"COSMOS 1933","OBJECT_ID":"1988-020A","EPOCH":"2026-04-15T04:09:08.548704","MEAN_MOTION":15.1833062,"ECCENTRICITY":0.00054187,"INCLINATION":82.515,"RA_OF_ASC_NODE":214.8086,"ARG_OF_PERICENTER":80.3929,"MEAN_ANOMALY":279.7917,"EPHEMERIS_TYPE":0,"CLASSIFICATION_TYPE":"U","NORAD_CAT_ID":18958,"ELEMENT_SET_NO":999,"REV_AT_EPOCH":5576,"BSTAR":0.00011638167,"MEAN_MOTION_DOT":2.42e-5,"MEAN_MOTION_DDOT":0},{"OBJECT_NAME":"SL-3 R/B","OBJECT_ID":"1988-032B","EPOCH":"2026-04-15T04:48:39.979008","MEAN_MOTION":15.20305923,"ECCENTRICITY":0.00276144,"INCLINATION":97.5227,"RA_OF_ASC_NODE":88.3446,"ARG_OF_PERICENTER":105.6996,"MEAN_ANOMALY":254.7288,"EPHEMERIS_TYPE":0,"CLASSIFICATION_TYPE":"U","NORAD_CAT_ID":19046,"ELEMENT_SET_NO":999,"REV_AT_EPOCH":5765,"BSTAR":0.00011252019,"MEAN_MOTION_DOT":2.397e-5,"MEAN_MOTION_DDOT":0},{"OBJECT_NAME":"SL-16 R/B","OBJECT_ID":"1988-039B","EPOCH":"2026-04-15T01:22:15.116160","MEAN_MOTION":14.19622673,"ECCENTRICITY":0.00240279,"INCLINATION":71.0168,"RA_OF_ASC_NODE":351.6507,"ARG_OF_PERICENTER":282.7998,"MEAN_ANOMALY":77.0442,"EPHEMERIS_TYPE":0,"CLASSIFICATION_TYPE":"U","NORAD_CAT_ID":19120,"ELEMENT_SET_NO":999,"REV_AT_EPOCH":96354,"BSTAR":3.1283557e-5,"MEAN_MOTION_DOT":1.8e-7,"MEAN_MOTION_DDOT":0},{"OBJECT_NAME":"COSMOS 1953","OBJECT_ID":"1988-050A","EPOCH":"2026-04-15T01:58:43.817376","MEAN_MOTION":15.29085377,"ECCENTRICITY":0.00106948,"INCLINATION":82.5048,"RA_OF_ASC_NODE":121.6231,"ARG_OF_PERICENTER":6.7108,"MEAN_ANOMALY":353.4273,"EPHEMERIS_TYPE":0,"CLASSIFICATION_TYPE":"U","NORAD_CAT_ID":19210,"ELEMENT_SET_NO":999,"REV_AT_EPOCH":4334,"BSTAR":0.00014521364,"MEAN_MOTION_DOT":4.139e-5,"MEAN_MOTION_DDOT":0}]
