SL-14 R/B               
1 16496U 86006B   26105.26542024  .00000471  00000+0  46999-4 0  9997
2 16496  82.5280 225.3115 0077259 150.5050 210.0561 14.86878936154643
COSMOS 1743             
1 16719U 86034A   26105.26524596  .00024804  00000+0  28523-3 0  9998
2 16719  82.5312  35.3509 0006963 127.5074 232.6818 15.61829837185950
SL-14 R/B               
1 16792U 86046B   26105.24596663  .00000265  00000+0  27541-4 0  9999
2 16792  82.4834  45.6380 0024642 106.0795 254.3137 14.85627108131831
SL-14 R/B               
1 16882U 86055B   26105.23072738  .00000252  00000+0  26255-4 0  9997
2 16882  82.5173  92.3157 0018102 206.9534 163.5372 14.85675747124795
AJISAI (EGS)            
1 16908U 86061A   26105.26300066 -.00000084  00000+0  97503-4 0  9992
2 16908  50.0115 340.8874 0011396  21.0121  83.5128 12.44515780472556
SL-14 R/B               
1 17567U 87024B   26105.26606659  .00000256  00000+0  26276-4 0  9990
2 17567  82.5282  58.3795 0019312 135.9883 224.2875 14.86168031 93566
COSMOS 1833             
1 17589U 87027A   26105.10476078 -.00000315  00000+0 -14246-3 0  9991
2 17589  70.9162 249.4732 0022588 158.9688 201.2367 14.13038545 15469
SL-16 R/B               
1 17590U 87027B   26105.25499859 -.00000237  00000+0 -93884-4 0  9990
2 17590  71.0034 199.4410 0003074  48.1986 311.9400 14.17169114 20529
SL-14 R/B               
1 17912U 87038B   26105.14504392  .00000234  00000+0  24208-4 0  9996
2 17912  82.4988 262.4534 0020301  47.3554 312.9369 14.85403543 84643
COSMOS 1844             
1 17973U 87041A   26105.03024083 -.00000106  00000+0 -29943-4 0  9990
2 17973  70.9002 317.5264 0032353 324.3671  35.5290 14.14564834  8728
SL-14 R/B               
1 18153U 87055B   26105.04814612  .00000247  00000+0  25661-4 0  9999
2 18153  82.4977 314.7627 0019176 252.2166 107.6958 14.85662826 75337
COSMOS 1867             
1 18187U 87060A   26105.25823250 -.00000065  00000+0  13068-4 0  9990
2 18187  65.0109 204.2924 0015179 280.5888  79.3486 14.31508644 25171
SL-14 R/B               
1 18749U 88001B   26105.18073128  .00000215  00000+0  21984-4 0  9995
2 18749  82.5140 161.0487 0019515 115.8348 244.4884 14.85564742 47448
COSMOS 1933             
1 18958U 88020A   26105.17301561  .00002420  00000+0  11638-3 0  9996
2 18958  82.5150 214.8086 0005418  80.3929 279.7917 15.18330620 55766
SL-3 R/B                
1 19046U 88032B   26105.20046272  .00002397  00000+0  11252-3 0  9992
2 19046  97.5227  88.3446 0027614 105.6996 254.7288 15.20305923 57652
SL-16 R/B               
1 19120U 88039B   26105.05711940  .00000018  00000+0  31284-4 0  9992
2 19120  71.0168 351.6507 0024027 282.7998  77.0442 14.19622673963547
COSMOS 1953             
1 19210U 88050A   26105.08245159  .00004139  00000+0  14521-3 0  9994
2 19210  82.5048 121.6231 0010694   6.7108 353.4273 15.29085377 43348
